{
  "object": {
    "pha": false,
    "prefix": "C",
    "neo": false,
    "des": "2014 UN271",
    "orbit_id": "119",
    "kind": "cu",
    "orbit_class": {
      "code": "COM",
      "name": "Comet"
    },
    "fullname": "C/2014 UN271 (Bernardinelli-Bernstein)",
    "spkid": "1003787"
  },
  "signature": {
    "source": "NASA/JPL Small-Body Database (SBDB) API",
    "version": "1.3"
  },
  "orbit": {
    "moid": "10.0854",
    "equinox": "J2000",
    "elements": [
      {
        "value": ".9982038485060989",
        "name": "e",
        "label": "e",
        "title": "eccentricity",
        "sigma": "6.9891E-6",
        "units": null
      },
      {
        "label": "a",
        "title": "semi-major axis",
        "value": "6086.546509399338",
        "name": "a",
        "units": "au",
        "sigma": "23.707"
      },
      {
        "units": "au",
        "sigma": "4.7476E-5",
        "label": "q",
        "title": "perihelion distance",
        "value": "10.93235960555621",
        "name": "q"
      },
      {
        "sigma": "9.7511E-6",
        "units": "deg",
        "name": "i",
        "value": "95.45188946326404",
        "label": "i",
        "title": "inclination; angle with respect to x-y ecliptic plane"
      },
      {
        "sigma": "1.7045E-5",
        "units": "deg",
        "value": "189.9400666797848",
        "name": "om",
        "label": "node",
        "title": "longitude of the ascending node"
      },
      {
        "sigma": ".00033014",
        "units": "deg",
        "name": "w",
        "value": "326.3970042529126",
        "label": "peri",
        "title": "argument of perihelion"
      },
      {
        "sigma": "4.3605E-5",
        "units": "deg",
        "value": "359.992538471175",
        "name": "ma",
        "label": "M",
        "title": "mean anomaly"
      },
      {
        "value": "2462894.344959414526",
        "name": "tp",
        "label": "tp",
        "title": "time of perihelion passage",
        "sigma": ".0057895",
        "units": "TDB"
      },
      {
        "sigma": "1013300.",
        "units": "d",
        "value": "173442228.2262181",
        "name": "per",
        "title": "sidereal orbital period",
        "label": "period"
      },
      {
        "sigma": "1.2127E-8",
        "units": "deg/d",
        "name": "n",
        "value": "2.075619090470041E-6",
        "title": "mean motion",
        "label": "n"
      },
      {
        "units": "au",
        "sigma": "47.372",
        "title": "aphelion distance",
        "label": "Q",
        "value": "12162.16065919312",
        "name": "ad"
      }
    ],
    "sb_used": "SB441-N16",
    "comment": null,
    "two_body": null,
    "source": "JPL",
    "condition_code": null,
    "n_del_obs_used": null,
    "not_valid_before": null,
    "first_obs": "2010-11-15",
    "n_dop_obs_used": null,
    "pe_used": "DE441",
    "not_valid_after": null,
    "producer": "Otto Matic",
    "last_obs": "2026-01-12",
    "moid_jup": "6.13879",
    "rms": ".46462",
    "covariance": {
      "epoch": "2459299.5",
      "data": [
        [
          "4.88474267408121E-11",
          "2.93570681883192E-10",
          "-3.853094118721616E-8",
          "1.803009835163514E-11",
          "-2.207165569023881E-9",
          "1.621464482767617E-11"
        ],
        [
          "2.93570681883192E-10",
          "2.253990290634881E-9",
          "-1.97136304414721E-7",
          "1.481803457023488E-10",
          "-1.537636478596295E-8",
          "1.296332992875115E-10"
        ],
        [
          "-3.853094118721616E-8",
          "-1.97136304414721E-7",
          "3.351876417884677E-5",
          "-1.117728910232881E-8",
          "1.601961746234608E-6",
          "-1.032089753747492E-8"
        ],
        [
          "1.803009835163514E-11",
          "1.481803457023488E-10",
          "-1.117728910232881E-8",
          "2.905309068917229E-10",
          "-9.564606887229405E-10",
          "1.282648321247568E-10"
        ],
        [
          "-2.207165569023881E-9",
          "-1.537636478596295E-8",
          "1.601961746234608E-6",
          "-9.564606887229405E-10",
          "1.08991617433991E-7",
          "-8.573109307604699E-10"
        ],
        [
          "1.621464482767617E-11",
          "1.296332992875115E-10",
          "-1.032089753747492E-8",
          "1.282648321247568E-10",
          "-8.573109307604699E-10",
          "9.508347751812123E-11"
        ]
      ],
      "labels": [
        "e",
        "q",
        "tp",
        "node",
        "peri",
        "i"
      ]
    },
    "data_arc": "5537",
    "model_pars": [],
    "orbit_id": "119",
    "n_obs_used": 1746,
    "soln_date": "2026-01-13 08:12:15",
    "epoch": "2459299.5",
    "t_jup": "-0.388"
  },
  "phys_par": [
    {
      "value": "5.5",
      "name": "M1",
      "ref": "119",
      "title": "comet total magnitude",
      "sigma": "0.8",
      "desc": "absolute magnitude of comet and coma (i.e. total)",
      "notes": "from 1681 observations, assumed slope, autocmod 3.0g",
      "units": null
    },
    {
      "notes": "autocmod 3.0g",
      "units": null,
      "ref": "119",
      "value": "4.5",
      "name": "K1",
      "title": "comet total magnitude slope",
      "desc": "comet total magnitude slope parameter",
      "sigma": null
    }
  ]
}